CCSDS_OMM_VERS = 2.0
CREATION_DATE  = 
ORIGINATOR     = 

OBJECT_NAME    = STARLINK-36772
OBJECT_ID      = 2026-026A
CENTER_NAME    = EARTH
REF_FRAME      = TEME
TIME_SYSTEM    = UTC
MEAN_ELEMENT_THEORY = SGP/SGP4

EPOCH          = 2026-02-11T18:04:34.000320
MEAN_MOTION    = 16.07750770
ECCENTRICITY   = .00034
INCLINATION    = 97.2800
RA_OF_ASC_NODE = 95.5280
ARG_OF_PERICENTER = 259.0800
MEAN_ANOMALY   = 81.2200

EPHEMERIS_TYPE = 0
CLASSIFICATION_TYPE = U
NORAD_CAT_ID   = 67721
ELEMENT_SET_NO = 999
REV_AT_EPOCH   = 1
BSTAR          = 0
MEAN_MOTION_DOT = -.725E-5
MEAN_MOTION_DDOT = .2293429E-5

CCSDS_OMM_VERS = 2.0
CREATION_DATE  = 
ORIGINATOR     = 

OBJECT_NAME    = STARLINK-36796
OBJECT_ID      = 2026-026B
CENTER_NAME    = EARTH
REF_FRAME      = TEME
TIME_SYSTEM    = UTC
MEAN_ELEMENT_THEORY = SGP/SGP4

EPOCH          = 2026-02-21T20:00:01.999008
MEAN_MOTION    = 15.89533208
ECCENTRICITY   = .0001651
INCLINATION    = 97.2747
RA_OF_ASC_NODE = 106.6299
ARG_OF_PERICENTER = 85.0733
MEAN_ANOMALY   = 82.9451

EPHEMERIS_TYPE = 0
CLASSIFICATION_TYPE = U
NORAD_CAT_ID   = 67722
ELEMENT_SET_NO = 999
REV_AT_EPOCH   = 276
BSTAR          = -.66148E-2
MEAN_MOTION_DOT = -.1904478E-1
MEAN_MOTION_DDOT = .97012E-3

CCSDS_OMM_VERS = 2.0
CREATION_DATE  = 
ORIGINATOR     = 

OBJECT_NAME    = STARLINK-36369
OBJECT_ID      = 2026-026C
CENTER_NAME    = EARTH
REF_FRAME      = TEME
TIME_SYSTEM    = UTC
MEAN_ELEMENT_THEORY = SGP/SGP4

EPOCH          = 2026-02-21T20:00:01.999008
MEAN_MOTION    = 15.89719594
ECCENTRICITY   = .0001729
INCLINATION    = 97.2745
RA_OF_ASC_NODE = 106.6321
ARG_OF_PERICENTER = 75.6509
MEAN_ANOMALY   = 96.5586

EPHEMERIS_TYPE = 0
CLASSIFICATION_TYPE = U
NORAD_CAT_ID   = 67723
ELEMENT_SET_NO = 999
REV_AT_EPOCH   = 276
BSTAR          = -.65446E-2
MEAN_MOTION_DOT = -.1901936E-1
MEAN_MOTION_DDOT = .96949E-3

CCSDS_OMM_VERS = 2.0
CREATION_DATE  = 
ORIGINATOR     = 

OBJECT_NAME    = STARLINK-36752
OBJECT_ID      = 2026-026D
CENTER_NAME    = EARTH
REF_FRAME      = TEME
TIME_SYSTEM    = UTC
MEAN_ELEMENT_THEORY = SGP/SGP4

EPOCH          = 2026-02-21T20:00:01.999008
MEAN_MOTION    = 15.89961691
ECCENTRICITY   = .0001704
INCLINATION    = 97.2747
RA_OF_ASC_NODE = 106.6353
ARG_OF_PERICENTER = 80.0078
MEAN_ANOMALY   = 97.6077

EPHEMERIS_TYPE = 0
CLASSIFICATION_TYPE = U
NORAD_CAT_ID   = 67724
ELEMENT_SET_NO = 999
REV_AT_EPOCH   = 276
BSTAR          = -.64291E-2
MEAN_MOTION_DOT = -.1891292E-1
MEAN_MOTION_DDOT = .96167E-3

CCSDS_OMM_VERS = 2.0
CREATION_DATE  = 
ORIGINATOR     = 

OBJECT_NAME    = STARLINK-36754
OBJECT_ID      = 2026-026E
CENTER_NAME    = EARTH
REF_FRAME      = TEME
TIME_SYSTEM    = UTC
MEAN_ELEMENT_THEORY = SGP/SGP4

EPOCH          = 2026-02-21T20:00:01.999008
MEAN_MOTION    = 15.90151316
ECCENTRICITY   = .0001698
INCLINATION    = 97.2743
RA_OF_ASC_NODE = 106.6365
ARG_OF_PERICENTER = 82.7741
MEAN_ANOMALY   = 99.0962

EPHEMERIS_TYPE = 0
CLASSIFICATION_TYPE = U
NORAD_CAT_ID   = 67725
ELEMENT_SET_NO = 999
REV_AT_EPOCH   = 276
BSTAR          = -.63687E-2
MEAN_MOTION_DOT = -.1891434E-1
MEAN_MOTION_DDOT = .96362E-3

CCSDS_OMM_VERS = 2.0
CREATION_DATE  = 
ORIGINATOR     = 

OBJECT_NAME    = STARLINK-36755
OBJECT_ID      = 2026-026F
CENTER_NAME    = EARTH
REF_FRAME      = TEME
TIME_SYSTEM    = UTC
MEAN_ELEMENT_THEORY = SGP/SGP4

EPOCH          = 2026-02-21T20:00:01.999008
MEAN_MOTION    = 15.90396186
ECCENTRICITY   = .0001676
INCLINATION    = 97.2737
RA_OF_ASC_NODE = 106.6382
ARG_OF_PERICENTER = 82.2659
MEAN_ANOMALY   = 104.9287

EPHEMERIS_TYPE = 0
CLASSIFICATION_TYPE = U
NORAD_CAT_ID   = 67726
ELEMENT_SET_NO = 999
REV_AT_EPOCH   = 276
BSTAR          = -.62788E-2
MEAN_MOTION_DOT = -.1887909E-1
MEAN_MOTION_DDOT = .96262E-3

CCSDS_OMM_VERS = 2.0
CREATION_DATE  = 
ORIGINATOR     = 

OBJECT_NAME    = STARLINK-36741
OBJECT_ID      = 2026-026G
CENTER_NAME    = EARTH
REF_FRAME      = TEME
TIME_SYSTEM    = UTC
MEAN_ELEMENT_THEORY = SGP/SGP4

EPOCH          = 2026-02-21T20:00:01.999008
MEAN_MOTION    = 15.90543882
ECCENTRICITY   = .0001658
INCLINATION    = 97.2731
RA_OF_ASC_NODE = 106.6396
ARG_OF_PERICENTER = 84.5145
MEAN_ANOMALY   = 106.1458

EPHEMERIS_TYPE = 0
CLASSIFICATION_TYPE = U
NORAD_CAT_ID   = 67727
ELEMENT_SET_NO = 999
REV_AT_EPOCH   = 276
BSTAR          = -.6201E-2
MEAN_MOTION_DOT = -.1878545E-1
MEAN_MOTION_DDOT = .95512E-3

CCSDS_OMM_VERS = 2.0
CREATION_DATE  = 
ORIGINATOR     = 

OBJECT_NAME    = STARLINK-36757
OBJECT_ID      = 2026-026H
CENTER_NAME    = EARTH
REF_FRAME      = TEME
TIME_SYSTEM    = UTC
MEAN_ELEMENT_THEORY = SGP/SGP4

EPOCH          = 2026-02-21T20:00:01.999008
MEAN_MOTION    = 15.90757056
ECCENTRICITY   = .0001683
INCLINATION    = 97.2727
RA_OF_ASC_NODE = 106.6411
ARG_OF_PERICENTER = 84.2812
MEAN_ANOMALY   = 111.1341

EPHEMERIS_TYPE = 0
CLASSIFICATION_TYPE = U
NORAD_CAT_ID   = 67728
ELEMENT_SET_NO = 999
REV_AT_EPOCH   = 276
BSTAR          = -.61143E-2
MEAN_MOTION_DOT = -.1872429E-1
MEAN_MOTION_DDOT = .95134E-3

CCSDS_OMM_VERS = 2.0
CREATION_DATE  = 
ORIGINATOR     = 

OBJECT_NAME    = STARLINK-36751
OBJECT_ID      = 2026-026J
CENTER_NAME    = EARTH
REF_FRAME      = TEME
TIME_SYSTEM    = UTC
MEAN_ELEMENT_THEORY = SGP/SGP4

EPOCH          = 2026-02-21T20:00:01.999008
MEAN_MOTION    = 15.91196700
ECCENTRICITY   = .0001712
INCLINATION    = 97.2724
RA_OF_ASC_NODE = 106.6453
ARG_OF_PERICENTER = 81.0255
MEAN_ANOMALY   = 123.9640

EPHEMERIS_TYPE = 0
CLASSIFICATION_TYPE = U
NORAD_CAT_ID   = 67729
ELEMENT_SET_NO = 999
REV_AT_EPOCH   = 276
BSTAR          = -.59957E-2
MEAN_MOTION_DOT = -.1877489E-1
MEAN_MOTION_DDOT = .96039E-3

CCSDS_OMM_VERS = 2.0
CREATION_DATE  = 
ORIGINATOR     = 

OBJECT_NAME    = STARLINK-36747
OBJECT_ID      = 2026-026K
CENTER_NAME    = EARTH
REF_FRAME      = TEME
TIME_SYSTEM    = UTC
MEAN_ELEMENT_THEORY = SGP/SGP4

EPOCH          = 2026-02-21T20:00:01.999008
MEAN_MOTION    = 15.90926056
ECCENTRICITY   = .000165
INCLINATION    = 97.2728
RA_OF_ASC_NODE = 106.6432
ARG_OF_PERICENTER = 81.3236
MEAN_ANOMALY   = 117.9044

EPHEMERIS_TYPE = 0
CLASSIFICATION_TYPE = U
NORAD_CAT_ID   = 67730
ELEMENT_SET_NO = 999
REV_AT_EPOCH   = 276
BSTAR          = -.60591E-2
MEAN_MOTION_DOT = -.187148E-1
MEAN_MOTION_DDOT = .95206E-3

CCSDS_OMM_VERS = 2.0
CREATION_DATE  = 
ORIGINATOR     = 

OBJECT_NAME    = STARLINK-36315
OBJECT_ID      = 2026-026L
CENTER_NAME    = EARTH
REF_FRAME      = TEME
TIME_SYSTEM    = UTC
MEAN_ELEMENT_THEORY = SGP/SGP4

EPOCH          = 2026-02-21T20:00:01.999008
MEAN_MOTION    = 15.91356284
ECCENTRICITY   = .0001663
INCLINATION    = 97.2724
RA_OF_ASC_NODE = 106.6472
ARG_OF_PERICENTER = 86.2570
MEAN_ANOMALY   = 122.4476

EPHEMERIS_TYPE = 0
CLASSIFICATION_TYPE = U
NORAD_CAT_ID   = 67731
ELEMENT_SET_NO = 999
REV_AT_EPOCH   = 276
BSTAR          = -.59104E-2
MEAN_MOTION_DOT = -.186597E-1
MEAN_MOTION_DDOT = .95094E-3

CCSDS_OMM_VERS = 2.0
CREATION_DATE  = 
ORIGINATOR     = 

OBJECT_NAME    = STARLINK-36260
OBJECT_ID      = 2026-026M
CENTER_NAME    = EARTH
REF_FRAME      = TEME
TIME_SYSTEM    = UTC
MEAN_ELEMENT_THEORY = SGP/SGP4

EPOCH          = 2026-02-21T20:00:01.999008
MEAN_MOTION    = 15.91553740
ECCENTRICITY   = .0001648
INCLINATION    = 97.2722
RA_OF_ASC_NODE = 106.6489
ARG_OF_PERICENTER = 78.5519
MEAN_ANOMALY   = 134.6579

EPHEMERIS_TYPE = 0
CLASSIFICATION_TYPE = U
NORAD_CAT_ID   = 67732
ELEMENT_SET_NO = 999
REV_AT_EPOCH   = 276
BSTAR          = -.5807E-2
MEAN_MOTION_DOT = -.1852046E-1
MEAN_MOTION_DDOT = .9396E-3

