STARLINK-36772          
1 67721U 26026A   26042.75317130 -.00000725  22934-5  00000+0 0  9999
2 67721  97.2800  95.5280 0003400 259.0800  81.2200 16.07750770    15
STARLINK-36796          
1 67722U 26026B   26052.83335647 -.01904478  97012-3 -66148-2 0  9998
2 67722  97.2747 106.6299 0001651  85.0733  82.9451 15.89533208  2762
STARLINK-36369          
1 67723U 26026C   26052.83335647 -.01901936  96949-3 -65446-2 0  9993
2 67723  97.2745 106.6321 0001729  75.6509  96.5586 15.89719594  2763
STARLINK-36752          
1 67724U 26026D   26052.83335647 -.01891292  96167-3 -64291-2 0  9996
2 67724  97.2747 106.6353 0001704  80.0078  97.6077 15.89961691  2769
STARLINK-36754          
1 67725U 26026E   26052.83335647 -.01891434  96362-3 -63687-2 0  9990
2 67725  97.2743 106.6365 0001698  82.7741  99.0962 15.90151316  2763
STARLINK-36755          
1 67726U 26026F   26052.83335647 -.01887909  96262-3 -62788-2 0  9993
2 67726  97.2737 106.6382 0001676  82.2659 104.9287 15.90396186  2767
STARLINK-36741          
1 67727U 26026G   26052.83335647 -.01878545  95512-3 -62010-2 0  9995
2 67727  97.2731 106.6396 0001658  84.5145 106.1458 15.90543882  2763
STARLINK-36757          
1 67728U 26026H   26052.83335647 -.01872429  95134-3 -61143-2 0  9997
2 67728  97.2727 106.6411 0001683  84.2812 111.1341 15.90757056  2760
STARLINK-36751          
1 67729U 26026J   26052.83335647 -.01877489  96039-3 -59957-2 0  9994
2 67729  97.2724 106.6453 0001712  81.0255 123.9640 15.91196700  2760
STARLINK-36747          
1 67730U 26026K   26052.83335647 -.01871480  95206-3 -60591-2 0  9992
2 67730  97.2728 106.6432 0001650  81.3236 117.9044 15.90926056  2761
STARLINK-36315          
1 67731U 26026L   26052.83335647 -.01865970  95094-3 -59104-2 0  9993
2 67731  97.2724 106.6472 0001663  86.2570 122.4476 15.91356284  2762
STARLINK-36260          
1 67732U 26026M   26052.83335647 -.01852046  93960-3 -58070-2 0  9995
2 67732  97.2722 106.6489 0001648  78.5519 134.6579 15.91553740  2764
